[{"OBJECT_NAME":"GECAM-A","OBJECT_ID":"2020-094A","EPOCH":"2026-02-27T03:21:27.347040","MEAN_MOTION":15.0033434,"ECCENTRICITY":0.00107,"INCLINATION":28.9961,"RA_OF_ASC_NODE":20.3521,"ARG_OF_PERICENTER":243.6219,"MEAN_ANOMALY":116.328,"EPHEMERIS_TYPE":0,"CLASSIFICATION_TYPE":"U","NORAD_CAT_ID":47234,"ELEMENT_SET_NO":999,"REV_AT_EPOCH":28514,"BSTAR":0.00017329,"MEAN_MOTION_DOT":2.379e-5,"MEAN_MOTION_DDOT":0},{"OBJECT_NAME":"STARLINK-34559","OBJECT_ID":"2025-142L","EPOCH":"2026-03-09T23:08:56.101344","MEAN_MOTION":14.98334778,"ECCENTRICITY":0.00026186,"INCLINATION":70.0015,"RA_OF_ASC_NODE":313.6977,"ARG_OF_PERICENTER":262.6555,"MEAN_ANOMALY":97.4306,"EPHEMERIS_TYPE":0,"CLASSIFICATION_TYPE":"U","NORAD_CAT_ID":64706,"ELEMENT_SET_NO":999,"REV_AT_EPOCH":3953,"BSTAR":0.00037743117,"MEAN_MOTION_DOT":4.414e-5,"MEAN_MOTION_DDOT":0}]
